start=new Date('2023-03-07T00:00:00.000Z').valueOf();
sats=[{"MEAN_MOTION_DDOT":"0.0000000000000","CLASSIFICATION_TYPE":"U","LAUNCH_DATE":"2022-03-03","PERIAPSIS":"538.887","OBJECT_TYPE":"PAYLOAD","MEAN_MOTION_DOT":"0.00005443","INCLINATION":"53.2141","EPHEMERIS_TYPE":"0","ECCENTRICITY":"0.00012140","REF_FRAME":"TEME","MEAN_MOTION":"15.08846198","MEAN_ELEMENT_THEORY":"SGP4","EPOCH":"2023-03-06T20:18:29.872512","TLE_LINE1":"1 51868U 22022S   23065.84617908  .00005443  00000-0  35974-3 0  9992","DECAY_DATE":null,"SITE":"AFETR","ARG_OF_PERICENTER":"72.4726","MEAN_ANOMALY":"287.6398","GP_ID":"227626895","SEMIMAJOR_AXIS":"6917.861","FILE":"3853141","CENTER_NAME":"EARTH","APOAPSIS":"540.566","NORAD_CAT_ID":"51868","OBJECT_ID":"2022-022S","BSTAR":"0.00035974000000","RCS_SIZE":"LARGE","TIME_SYSTEM":"UTC","PERIOD":"95.437","TLE_LINE2":"2 51868  53.2141 262.0189 0001214  72.4726 287.6398 15.08846198 57229","REV_AT_EPOCH":"5722","COUNTRY_CODE":"US","RA_OF_ASC_NODE":"262.0189","OBJECT_NAME":"STARLINK-3578","ELEMENT_SET_NO":"999"},{"ELEMENT_SET_NO":"999","OBJECT_NAME":"STARLINK-3588","RA_OF_ASC_NODE":"262.0991","REV_AT_EPOCH":"5722","COUNTRY_CODE":"US","RCS_SIZE":"LARGE","TIME_SYSTEM":"UTC","PERIOD":"95.437","TLE_LINE2":"2 51869  53.2150 262.0991 0000886  60.7280 299.3800 15.08841850 57228","OBJECT_ID":"2022-022T","BSTAR":"0.00020967000000","SEMIMAJOR_AXIS":"6917.875","FILE":"3853141","CENTER_NAME":"EARTH","APOAPSIS":"540.353","NORAD_CAT_ID":"51869","MEAN_ANOMALY":"299.3800","GP_ID":"227627145","DECAY_DATE":null,"SITE":"AFETR","ARG_OF_PERICENTER":"60.7280","EPOCH":"2023-03-06T19:52:00.370848","MEAN_MOTION":"15.08841850","MEAN_ELEMENT_THEORY":"SGP4","TLE_LINE1":"1 51869U 22022T   23065.82778207  .00003051  00000-0  20967-3 0  9990","REF_FRAME":"TEME","ECCENTRICITY":"0.00008860","OBJECT_TYPE":"PAYLOAD","MEAN_MOTION_DOT":"0.00003051","INCLINATION":"53.2150","EPHEMERIS_TYPE":"0","PERIAPSIS":"539.127","MEAN_MOTION_DDOT":"0.0000000000000","CLASSIFICATION_TYPE":"U","LAUNCH_DATE":"2022-03-03"},{"OBJECT_ID":"2022-022U","BSTAR":"0.00076254000000","RCS_SIZE":"LARGE","TIME_SYSTEM":"UTC","PERIOD":"95.436","TLE_LINE2":"2 51870  53.2149 262.0656 0001128  61.4434 298.6672 15.08870304 57275","MEAN_ANOMALY":"298.6672","GP_ID":"227628395","SEMIMAJOR_AXIS":"6917.788","FILE":"3853141","APOAPSIS":"540.433","CENTER_NAME":"EARTH","NORAD_CAT_ID":"51870","OBJECT_NAME":"STARLINK-3591","ELEMENT_SET_NO":"999","COUNTRY_CODE":"US","REV_AT_EPOCH":"5727","RA_OF_ASC_NODE":"262.0656","PERIAPSIS":"538.872","MEAN_MOTION_DDOT":"0.0000000000000","CLASSIFICATION_TYPE":"U","LAUNCH_DATE":"2022-03-03","MEAN_MOTION":"15.08870304","EPOCH":"2023-03-06T20:02:36.110688","MEAN_ELEMENT_THEORY":"SGP4","TLE_LINE1":"1 51870U 22022U   23065.83514017  .00011879  00000-0  76254-3 0  9997","SITE":"AFETR","DECAY_DATE":null,"ARG_OF_PERICENTER":"61.4434","OBJECT_TYPE":"PAYLOAD","INCLINATION":"53.2149","MEAN_MOTION_DOT":"0.00011879","EPHEMERIS_TYPE":"0","ECCENTRICITY":"0.00011280","REF_FRAME":"TEME"},{"COUNTRY_CODE":"US","REV_AT_EPOCH":"5733","RA_OF_ASC_NODE":"262.1225","OBJECT_NAME":"STARLINK-3567","ELEMENT_SET_NO":"999","GP_ID":"227628146","MEAN_ANOMALY":"292.3124","APOAPSIS":"540.287","CENTER_NAME":"EARTH","NORAD_CAT_ID":"51871","SEMIMAJOR_AXIS":"6917.872","FILE":"3853141","BSTAR":"0.00021481000000","OBJECT_ID":"2022-022V","PERIOD":"95.437","TLE_LINE2":"2 51871  53.2134 262.1225 0000795  67.7952 292.3124 15.08842860 57332","RCS_SIZE":"LARGE","TIME_SYSTEM":"UTC","EPHEMERIS_TYPE":"0","OBJECT_TYPE":"PAYLOAD","MEAN_MOTION_DOT":"0.00003133","INCLINATION":"53.2134","ECCENTRICITY":"0.00007950","REF_FRAME":"TEME","TLE_LINE1":"1 51871U 22022V   23065.82410017  .00003133  00000-0  21481-3 0  9998","EPOCH":"2023-03-06T19:46:42.254688","MEAN_MOTION":"15.08842860","MEAN_ELEMENT_THEORY":"SGP4","ARG_OF_PERICENTER":"67.7952","DECAY_DATE":null,"SITE":"AFETR","LAUNCH_DATE":"2022-03-03","CLASSIFICATION_TYPE":"U","MEAN_MOTION_DDOT":"0.0000000000000","PERIAPSIS":"539.187"},{"RA_OF_ASC_NODE":"261.9568","REV_AT_EPOCH":"5722","COUNTRY_CODE":"US","ELEMENT_SET_NO":"999","OBJECT_NAME":"STARLINK-3554","CENTER_NAME":"EARTH","APOAPSIS":"533.477","NORAD_CAT_ID":"51872","SEMIMAJOR_AXIS":"6911.198","FILE":"3853141","GP_ID":"227627395","MEAN_ANOMALY":"274.5597","PERIOD":"95.299","TLE_LINE2":"2 51872  53.2122 261.9568 0000599  85.5465 274.5597 15.11028848 57226","RCS_SIZE":"LARGE","TIME_SYSTEM":"UTC","BSTAR":"0.00172750000000","OBJECT_ID":"2022-022W","ECCENTRICITY":"0.00005990","REF_FRAME":"TEME","EPHEMERIS_TYPE":"0","OBJECT_TYPE":"PAYLOAD","INCLINATION":"53.2122","MEAN_MOTION_DOT":"0.00029027","ARG_OF_PERICENTER":"85.5465","SITE":"AFETR","DECAY_DATE":null,"TLE_LINE1":"1 51872U 22022W   23065.80946947  .00029027  00000-0  17275-2 0  9998","EPOCH":"2023-03-06T19:25:38.162208","MEAN_MOTION":"15.11028848","MEAN_ELEMENT_THEORY":"SGP4","CLASSIFICATION_TYPE":"U","LAUNCH_DATE":"2022-03-03","MEAN_MOTION_DDOT":"0.0000000000000","PERIAPSIS":"532.649"},{"INCLINATION":"53.2149","MEAN_MOTION_DOT":"0.00005507","OBJECT_TYPE":"PAYLOAD","EPHEMERIS_TYPE":"0","REF_FRAME":"TEME","ECCENTRICITY":"0.00011750","MEAN_MOTION":"15.08848576","MEAN_ELEMENT_THEORY":"SGP4","EPOCH":"2023-03-06T19:30:48.810816","TLE_LINE1":"1 51873U 22022X   23065.81306494  .00005507  00000-0  36372-3 0  9994","DECAY_DATE":null,"SITE":"AFETR","ARG_OF_PERICENTER":"74.9073","MEAN_MOTION_DDOT":"0.0000000000000","LAUNCH_DATE":"2022-03-03","CLASSIFICATION_TYPE":"U","PERIAPSIS":"538.906","COUNTRY_CODE":"US","REV_AT_EPOCH":"5722","RA_OF_ASC_NODE":"262.1691","OBJECT_NAME":"STARLINK-3582","ELEMENT_SET_NO":"999","MEAN_ANOMALY":"285.2049","GP_ID":"227627645","FILE":"3853141","SEMIMAJOR_AXIS":"6917.854","NORAD_CAT_ID":"51873","APOAPSIS":"540.532","CENTER_NAME":"EARTH","OBJECT_ID":"2022-022X","BSTAR":"0.00036372000000","TIME_SYSTEM":"UTC","RCS_SIZE":"LARGE","TLE_LINE2":"2 51873  53.2149 262.1691 0001175  74.9073 285.2049 15.08848576 57229","PERIOD":"95.437"},{"LAUNCH_DATE":"2022-03-03","CLASSIFICATION_TYPE":"U","MEAN_MOTION_DDOT":"0.0000000000000","PERIAPSIS":"539.208","EPHEMERIS_TYPE":"0","MEAN_MOTION_DOT":"0.00015650","INCLINATION":"53.2125","OBJECT_TYPE":"PAYLOAD","REF_FRAME":"TEME","ECCENTRICITY":"0.00007270","TLE_LINE1":"1 51874U 22022Y   23065.82041892  .00015650  00000-0  99889-3 0  9996","MEAN_ELEMENT_THEORY":"SGP4","MEAN_MOTION":"15.08851129","EPOCH":"2023-03-06T19:41:24.194688","ARG_OF_PERICENTER":"71.5360","DECAY_DATE":null,"SITE":"AFETR","GP_ID":"227627896","MEAN_ANOMALY":"288.5711","NORAD_CAT_ID":"51874","APOAPSIS":"540.214","CENTER_NAME":"EARTH","FILE":"3853141","SEMIMAJOR_AXIS":"6917.846","BSTAR":"0.00099889000000","OBJECT_ID":"2022-022Y","TLE_LINE2":"2 51874  53.2125 262.1391 0000727  71.5360 288.5711 15.08851129 57214","PERIOD":"95.437","TIME_SYSTEM":"UTC","RCS_SIZE":"LARGE","REV_AT_EPOCH":"5721","COUNTRY_CODE":"US","RA_OF_ASC_NODE":"262.1391","OBJECT_NAME":"STARLINK-3574","ELEMENT_SET_NO":"999"},{"SITE":"AFETR","DECAY_DATE":null,"ARG_OF_PERICENTER":"85.1654","MEAN_ELEMENT_THEORY":"SGP4","MEAN_MOTION":"15.08843310","EPOCH":"2023-03-06T19:21:35.209728","TLE_LINE1":"1 51875U 22022Z   23065.80665752  .00004046  00000-0  27215-3 0  9993","REF_FRAME":"TEME","ECCENTRICITY":"0.00013330","MEAN_MOTION_DOT":"0.00004046","INCLINATION":"53.2150","OBJECT_TYPE":"PAYLOAD","EPHEMERIS_TYPE":"0","PERIAPSIS":"538.813","MEAN_MOTION_DDOT":"0.0000000000000","LAUNCH_DATE":"2022-03-03","CLASSIFICATION_TYPE":"U","ELEMENT_SET_NO":"999","OBJECT_NAME":"STARLINK-3585","RA_OF_ASC_NODE":"262.2001","REV_AT_EPOCH":"5722","COUNTRY_CODE":"US","TIME_SYSTEM":"UTC","RCS_SIZE":"LARGE","TLE_LINE2":"2 51875  53.2150 262.2001 0001333  85.1654 274.9491 15.08843310 57221","PERIOD":"95.437","OBJECT_ID":"2022-022Z","BSTAR":"0.00027215000000","FILE":"3853141","SEMIMAJOR_AXIS":"6917.870","NORAD_CAT_ID":"51875","APOAPSIS":"540.657","CENTER_NAME":"EARTH","MEAN_ANOMALY":"274.9491","GP_ID":"227628645"},{"COUNTRY_CODE":"US","REV_AT_EPOCH":"5723","RA_OF_ASC_NODE":"261.8558","OBJECT_NAME":"STARLINK-3583","ELEMENT_SET_NO":"999","GP_ID":"227626896","MEAN_ANOMALY":"287.9971","NORAD_CAT_ID":"51876","CENTER_NAME":"EARTH","APOAPSIS":"540.402","FILE":"3853141","SEMIMAJOR_AXIS":"6917.855","BSTAR":"0.00031942000000","OBJECT_ID":"2022-022AA","TLE_LINE2":"2 51876  53.2148 261.8558 0000986  72.1129 287.9971 15.08848336 57238","PERIOD":"95.437","TIME_SYSTEM":"UTC","RCS_SIZE":"LARGE","EPHEMERIS_TYPE":"0","MEAN_MOTION_DOT":"0.00004801","INCLINATION":"53.2148","OBJECT_TYPE":"PAYLOAD","ECCENTRICITY":"0.00009860","REF_FRAME":"TEME","TLE_LINE1":"1 51876U 22022AA  23065.88297949  .00004801  00000-0  31942-3 0  9992","EPOCH":"2023-03-06T21:11:29.427936","MEAN_MOTION":"15.08848336","MEAN_ELEMENT_THEORY":"SGP4","ARG_OF_PERICENTER":"72.1129","DECAY_DATE":null,"SITE":"AFETR","LAUNCH_DATE":"2022-03-03","CLASSIFICATION_TYPE":"U","MEAN_MOTION_DDOT":"0.0000000000000","PERIAPSIS":"539.038"},{"ECCENTRICITY":"0.00012160","REF_FRAME":"TEME","MEAN_MOTION_DOT":"0.00001437","INCLINATION":"53.2136","OBJECT_TYPE":"PAYLOAD","EPHEMERIS_TYPE":"0","SITE":"AFETR","DECAY_DATE":null,"ARG_OF_PERICENTER":"83.8411","MEAN_MOTION":"15.08847893","MEAN_ELEMENT_THEORY":"SGP4","EPOCH":"2023-03-06T20:46:18.842304","TLE_LINE1":"1 51877U 22022AB  23065.86549586  .00001437  00000-0  10836-3 0  9999","MEAN_MOTION_DDOT":"0.0000000000000","LAUNCH_DATE":"2022-03-03","CLASSIFICATION_TYPE":"U","PERIAPSIS":"538.880","RA_OF_ASC_NODE":"251.9334","REV_AT_EPOCH":"5736","COUNTRY_CODE":"US","ELEMENT_SET_NO":"999","OBJECT_NAME":"STARLINK-3556","FILE":"3853141","SEMIMAJOR_AXIS":"6917.856","NORAD_CAT_ID":"51877","APOAPSIS":"540.562","CENTER_NAME":"EARTH","MEAN_ANOMALY":"276.2719","GP_ID":"227627146","TIME_SYSTEM":"UTC","RCS_SIZE":"LARGE","TLE_LINE2":"2 51877  53.2136 251.9334 0001216  83.8411 276.2719 15.08847893 57360","PERIOD":"95.437","OBJECT_ID":"2022-022AB","BSTAR":"0.00010836000000"}];
